COMMENT,ORIGINATOR,NORAD_CAT_ID,OBJECT_NAME,OBJECT_TYPE,CLASSIFICATION_TYPE,INTLDES,EPOCH,EPOCH_MICROSECONDS,MEAN_MOTION,ECCENTRICITY,INCLINATION,RA_OF_ASC_NODE,ARG_OF_PERICENTER,MEAN_ANOMALY,EPHEMERIS_TYPE,ELEMENT_SET_NO,REV_AT_EPOCH,BSTAR,MEAN_MOTION_DOT,MEAN_MOTION_DDOT,FILE,TLE_LINE0,TLE_LINE1,TLE_LINE2,OBJECT_ID,OBJECT_NUMBER,SEMIMAJOR_AXIS,PERIOD,APOGEE,PERIGEE
"GENERATED VIA SPACETRACK.ORG API","JSPOC","40552","GONETS M 11 (M21)","PAYLOAD","U","15020A","2016-01-09 01:23:59","260992","12.42885842","0.0016861","82.4855","246.1808","36.2853","323.9371","0","999","3520","0","1e-07","0","1978022","0 GONETS M 11 (M21)","1 40552U 15020A   16009.05832478  .00000010  00000-0  00000+0 0  9997","2 40552  82.4855 246.1808 0016861  36.2853 323.9371 12.42885842 35200","2015-020A","40552","7872.530","115.859","1507.669","1481.121"
"GENERATED VIA SPACETRACK.ORG API","JSPOC","27466","SL-8 R/B","ROCKET BODY","U","02036C","2016-01-09 01:24:04","423392","12.44330974","0.0043334","82.4818","210.1114","328.8885","188.8385","0","999","61345","0.00018181","3.5e-07","0","1977962","0 SL-8 R/B","1 27466U 02036C   16009.05838453  .00000035  00000-0  18181-3 0  9998","2 27466  82.4818 210.1114 0043334 328.8885 188.8385 12.44330974613454","2002-036C","27466","7866.433","115.724","1522.387","1454.210"
"GENERATED VIA SPACETRACK.ORG API","JSPOC","21732","COSMOS 2161","PAYLOAD","U","91068E","2016-01-09 01:24:12","772224","12.65186502","0.0010743","82.5744","210.973","17.8772","139.281","0","999","12139","9.6077e-05","2.9e-07","0","1977967","0 COSMOS 2161","1 21732U 91068E   16009.05848116  .00000029  00000-0  96077-4 0  9992","2 21732  82.5744 210.9730 0010743  17.8772 139.2810 12.65186502121392","1991-068E","21732","7779.747","113.817","1409.969","1393.254"
"GENERATED VIA SPACETRACK.ORG API","JSPOC","21893","SUPERBIRD B1","PAYLOAD","U","92010A","2016-01-09 01:24:50","794272","0.99052505","0.0008856","11.9829","37.4182","36.6662","110.2167","0","999","8655","0","6.7e-07","0","1978726","0 SUPERBIRD B1","1 21893U 92010A   16009.05892123 +.00000067 +00000-0 +00000-0 0  9994","2 21893 011.9829 037.4182 0008856 036.6662 110.2167 00.99052505086553","1992-010A","21893","42510.041","1453.774","36169.553","36094.259"
"GENERATED VIA SPACETRACK.ORG API","JSPOC","23411","GEO IK","PAYLOAD","U","94078A","2016-01-09 01:24:59","37696","12.4080815","0.0028299","73.6118","231.5247","47.9615","104.1064","0","999","95643","0.00028658","2.2e-07","0","1977895","0 GEO IK","1 23411U 94078A   16009.05901664  .00000022  00000-0  28658-3 0  9992","2 23411  73.6118 231.5247 0028299  47.9615 104.1064 12.40808150956437","1994-078A","23411","7881.316","116.053","1525.484","1480.877"
"GENERATED VIA SPACETRACK.ORG API","JSPOC","3290","OPS 9347 (IDSCS 26)","PAYLOAD","U","68050G","2016-01-09 01:25:31","663200","1.0703468","0.0062675","1.2298","336.7541","136.0711","4.3497","0","999","9810","0","-4.5e-07","0","1977909","0 OPS 9347 (IDSCS 26)","1 03290U 68050G   16009.05939425 -.00000045  00000-0  00000+0 0  9995","2 03290   1.2298 336.7541 0062675 136.0711   4.3497  1.07034680 98106","1968-050G","3290","40369.387","1345.358","34244.268","33738.237"
"GENERATED VIA SPACETRACK.ORG API","JSPOC","31573","GLOBALSTAR M069","PAYLOAD","U","07020C","2016-01-09 01:25:34","701024","12.62266576","0.0002176","51.9937","237.4698","90.9957","74.6065","0","999","39914","0.00017025","-7.3e-07","0","1978007","0 GLOBALSTAR M069","1 31573U 07020C   16009.05942941 -.00000073  00000-0  17025-3 0  9997","2 31573  51.9937 237.4698 0002176  90.9957  74.6065 12.62266576399146","2007-020C","31573","7791.740","114.080","1415.300","1411.909"
"GENERATED VIA SPACETRACK.ORG API","JSPOC","22980","H-2 R/B","ROCKET BODY","U","94007C","2016-01-09 01:25:44","122944","2.88693233","0.6802287","28.4675","246.1127","89.434","341.6271","0","999","21371","0.0010513","2.864e-05","0","1978726","0 H-2 R/B","1 22980U 94007C   16009.05953846 +.00002864 +00000-0 +10513-2 0  9999","2 22980 028.4675 246.1127 6802287 089.4340 341.6271 02.88693233213711","1994-007C","22980","20834.229","498.799","28628.134","284.053"
"GENERATED VIA SPACETRACK.ORG API","JSPOC","30799","DELTA 2 R/B(2)","ROCKET BODY","U","07004G","2016-01-09 01:26:09","17376","0.78847644","0.8646753","7.7688","260.7065","8.6616","0.0263","0","999","2526","-0.39347","-0.00073926","0","1979142","0 DELTA 2 R/B(2)","1 30799U 07004G   16009.05982659 -.00073926  00000-0 -39347+0 0  9993","2 30799   7.7688 260.7065 8646753   8.6616   0.0263  0.78847644 25262","2007-004G","30799","49492.876","1826.306","85910.009","319.473"
"GENERATED VIA SPACETRACK.ORG API","JSPOC","24876","NAVSTAR 43 (USA 132)","PAYLOAD","U","97035A","2016-01-09 01:26:43","743264","2.0056231","0.0044571","55.7142","247.8102","115.5324","245.0232","0","999","13529","0","6.3e-07","0","1978177","0 NAVSTAR 43 (USA 132)","1 24876U 97035A   16009.06022851  .00000063  00000-0  00000+0 0  9999","2 24876  55.7142 247.8102 0044571 115.5324 245.0232  2.00562310135296","1997-035A","24876","26560.462","717.981","20300.709","20063.944"
"GENERATED VIA SPACETRACK.ORG API","JSPOC","11984","DELTA 1 R/B(2)","ROCKET BODY","U","67026C","2016-01-09 01:27:56","33280","6.15680503","0.4634035","26.0243","15.8889","191.3095","153.0499","0","999","31049","0.00038","1.145e-05","0","1977936","0 DELTA 1 R/B(2)","1 11984U 67026C   16009.06106520  .00001145  00000-0  38000-3 0  9995","2 11984  26.0243  15.8889 4634035 191.3095 153.0499  6.15680503310496","1967-026C","11984","12574.717","233.887","12023.750","369.414"
"GENERATED VIA SPACETRACK.ORG API","JSPOC","33312","RAPIDEYE 2","PAYLOAD","U","08040A","2016-01-09 01:29:18","535776","14.79961199","0.0010773","97.8626","96.4487","258.3511","101.6496","0","999","39770","3.5913e-05","2.2e-06","0","1978035","0 RAPIDEYE 2","1 33312U 08040A   16009.06202009  .00000220  00000-0  35913-4 0  9998","2 33312  97.8626  96.4487 0010773 258.3511 101.6496 14.79961199397702","2008-040A","33312","7007.583","97.299","636.997","621.899"
"GENERATED VIA SPACETRACK.ORG API","JSPOC","29642","FENGYUN 2D AKM","ROCKET BODY","U","06053C","2016-01-09 01:30:47","109600","0.99357707","0.0099543","5.02","62.8306","314.9606","73.874","0","999","3297","0","-2.57e-06","0","1978070","0 FENGYUN 2D AKM","1 29642U 06053C   16009.06304525 -.00000257  00000-0  00000+0 0  9992","2 29642   5.0200  62.8306 0099543 314.9606  73.8740  0.99357707 32973","2006-053C","29642","42422.943","1449.308","36467.099","35622.518"
"GENERATED VIA SPACETRACK.ORG API","JSPOC","25585","INTELSAT 6B (PAS 6B)","PAYLOAD","U","98075A","2016-01-09 01:30:54","355104","0.9915535","0.0014864","6.4324","55.4076","86.3345","314.5661","0","999","6220","0","-2.48e-06","0","1978065","0 INTELSAT 6B (PAS 6B)","1 25585U 98075A   16009.06312911 -.00000248  00000-0  00000+0 0  9997","2 25585   6.4324  55.4076 0014864  86.3345 314.5661  0.99155350 62208","1998-075A","25585","42480.642","1452.266","36165.650","36039.363"
"GENERATED VIA SPACETRACK.ORG API","JSPOC","32375","BREEZE-M R/B","ROCKET BODY","U","07058C","2016-01-09 01:30:54","355104","1.04428388","0.023512","6.2834","52.5131","116.0205","290.1693","0","999","3066","0","-7.3e-07","0","1978726","0 BREEZE-M R/B","1 32375U 07058C   16009.06312911 -.00000073 +00000-0 +00000-0 0  9990","2 32375 006.2834 052.5131 0235120 116.0205 290.1693 01.04428388030663","2007-058C","32375","41038.309","1378.935","35625.066","33695.281"
"GENERATED VIA SPACETRACK.ORG API","JSPOC","25126","HGS-1 (ASIASAT 3)","PAYLOAD","U","97086A","2016-01-09 01:30:55","12608","1.00261715","0.0043436","6.8594","63.8811","303.1589","88.9108","0","999","6692","0","-2.42e-06","0","1978113","0 HGS-1 (ASIASAT 3)","1 25126U 97086A   16009.06313672 -.00000242  00000-0  00000+0 0  9998","2 25126   6.8594  63.8811 0043436 303.1589  88.9108  1.00261715 66926","1997-086A","25126","42167.555","1436.241","35972.579","35606.261"
"GENERATED VIA SPACETRACK.ORG API","JSPOC","23192","DIRECTV 2 (DBS 2)","PAYLOAD","U","94047A","2016-01-09 01:30:55","671840","0.9863641","0.0012854","7.53","52.0012","233.5746","171.237","0","999","8806","0","-2.07e-06","0","1978726","0 DIRECTV 2 (DBS 2)","1 23192U 94047A   16009.06314435 -.00000207 +00000-0 +00000-0 0  9993","2 23192 007.5300 052.0012 0012854 233.5746 171.2370 00.98636410088064","1994-047A","23192","42629.509","1459.907","36306.170","36196.578"
"GENERATED VIA SPACETRACK.ORG API","JSPOC","32712","DELTA 2 R/B(2) (PAM-D)","ROCKET BODY","U","08012B","2016-01-09 01:30:58","983552","9.56653898","0.2992374","39.8514","103.546","186.7428","168.1958","0","999","17646","0.0012351","0.00216068","5.0474","1978014","0 DELTA 2 R/B(2) (PAM-D)","1 32712U 08012B   16009.06318268  .00216068  50474-6  12351-2 0  9999","2 32712  39.8514 103.5460 2992374 186.7428 168.1958  9.56653898176469","2008-012B","32712","9373.431","150.524","5800.177","190.415"
"GENERATED VIA SPACETRACK.ORG API","JSPOC","15994","ASC 1","PAYLOAD","U","85076C","2016-01-09 01:31:21","84672","1.00315123","0.0005873","14.8945","17.7822","278.0508","93.1004","0","999","7978","0","-1.33e-06","0","1977961","0 ASC 1","1 15994U 85076C   16009.06343848 -.00000133  00000-0  00000+0 0  9993","2 15994  14.8945  17.7822 0005873 278.0508  93.1004  1.00315123 79785","1985-076C","15994","42152.587","1435.476","35799.208","35749.695"
"GENERATED VIA SPACETRACK.ORG API","JSPOC","24714","NAHUEL 1A","PAYLOAD","U","97002B","2016-01-09 01:31:31","238400","0.99389699","0.0005877","6.8938","53.6477","143.3351","275.7899","0","999","6916","0","-2.32e-06","0","1978726","0 NAHUEL 1A","1 24714U 97002B   16009.06355600 -.00000232 +00000-0 +00000-0 0  9995","2 24714 006.8938 053.6477 0005877 143.3351 275.7899 00.99389699069164","1997-002B","24714","42413.839","1448.842","36060.631","36010.778"
